[{"OBJECT_NAME":"STARLINK-3606","OBJECT_ID":"2022-017AR","EPOCH":"2026-03-09T21:42:03.991104","MEAN_MOTION":15.08835121,"ECCENTRICITY":0.00013924,"INCLINATION":53.2185,"RA_OF_ASC_NODE":338.1549,"ARG_OF_PERICENTER":108.7462,"MEAN_ANOMALY":251.3681,"EPHEMERIS_TYPE":0,"CLASSIFICATION_TYPE":"U","NORAD_CAT_ID":51807,"ELEMENT_SET_NO":999,"REV_AT_EPOCH":22414,"BSTAR":-0.00011787987,"MEAN_MOTION_DOT":-2.163e-5,"MEAN_MOTION_DDOT":0},{"OBJECT_NAME":"TITAN 3C TRANSTAGE DEB","OBJECT_ID":"1965-082EA","EPOCH":"2026-03-09T23:10:17.723424","MEAN_MOTION":15.08375165,"ECCENTRICITY":0.00122709,"INCLINATION":32.3951,"RA_OF_ASC_NODE":291.2548,"ARG_OF_PERICENTER":351.0252,"MEAN_ANOMALY":9.0191,"EPHEMERIS_TYPE":0,"CLASSIFICATION_TYPE":"U","NORAD_CAT_ID":1835,"ELEMENT_SET_NO":999,"REV_AT_EPOCH":23237,"BSTAR":0.00035954995,"MEAN_MOTION_DOT":5.778e-5,"MEAN_MOTION_DDOT":0}]
